{
    "links": {
        "self": "http://www.neowsapp.com/rest/v1/neo/3971138?api_key=iIulBulltgU6a56xZRHN4H3l9WmuAYTsLGpBGhQ2"
    },
    "id": "3971138",
    "neo_reference_id": "3971138",
    "name": "(2020 AL)",
    "designation": "2020 AL",
    "nasa_jpl_url": "http://ssd.jpl.nasa.gov/sbdb.cgi?sstr=3971138",
    "absolute_magnitude_h": 24.6,
    "estimated_diameter": {
        "kilometers": {
            "estimated_diameter_min": 0.0319561887,
            "estimated_diameter_max": 0.0714562102
        },
        "meters": {
            "estimated_diameter_min": 31.9561886721,
            "estimated_diameter_max": 71.4562101727
        },
        "miles": {
            "estimated_diameter_min": 0.0198566489,
            "estimated_diameter_max": 0.0444008168
        },
        "feet": {
            "estimated_diameter_min": 104.8431420431,
            "estimated_diameter_max": 234.436392583
        }
    },
    "is_potentially_hazardous_asteroid": false,
    "close_approach_data": [
        {
            "close_approach_date": "2017-12-14",
            "close_approach_date_full": "2017-Dec-14 08:14",
            "epoch_date_close_approach": 1513239240000,
            "relative_velocity": {
                "kilometers_per_second": "3.9015246708",
                "kilometers_per_hour": "14045.4888147309",
                "miles_per_hour": "8727.3205360199"
            },
            "miss_distance": {
                "astronomical": "0.1975280777",
                "lunar": "76.8384222253",
                "kilometers": "29549779.689114499",
                "miles": "18361381.6702341262"
            },
            "orbiting_body": "Earth"
        },
        {
            "close_approach_date": "2019-12-22",
            "close_approach_date_full": "2019-Dec-22 22:15",
            "epoch_date_close_approach": 1577052900000,
            "relative_velocity": {
                "kilometers_per_second": "2.7125176388",
                "kilometers_per_hour": "9765.063499631",
                "miles_per_hour": "6067.6307062013"
            },
            "miss_distance": {
                "astronomical": "0.1480501105",
                "lunar": "57.5914929845",
                "kilometers": "22147981.184064635",
                "miles": "13762117.349916563"
            },
            "orbiting_body": "Earth"
        },
        {
            "close_approach_date": "2022-01-06",
            "close_approach_date_full": "2022-Jan-06 02:55",
            "epoch_date_close_approach": 1641437700000,
            "relative_velocity": {
                "kilometers_per_second": "2.5482278244",
                "kilometers_per_hour": "9173.620167974",
                "miles_per_hour": "5700.1308204836"
            },
            "miss_distance": {
                "astronomical": "0.2172926886",
                "lunar": "84.5268558654",
                "kilometers": "32506523.381133282",
                "miles": "20198617.0067200116"
            },
            "orbiting_body": "Earth"
        }
    ],
    "orbital_data": {
        "orbit_id": "3",
        "orbit_determination_date": "2020-01-24 05:54:25",
        "first_observation_date": "2019-12-30",
        "last_observation_date": "2020-01-22",
        "data_arc_in_days": 23,
        "observations_used": 19,
        "orbit_uncertainty": "7",
        "minimum_orbit_intersection": ".147558",
        "jupiter_tisserand_invariant": "4.348",
        "epoch_osculation": "2459000.5",
        "eccentricity": ".3001415826371132",
        "semi_major_axis": "1.575016209524738",
        "inclination": "5.49871236609654",
        "ascending_node_longitude": "327.2040478116309",
        "orbital_period": "721.9813323012918",
        "perihelion_distance": "1.102288351718876",
        "perihelion_argument": "114.9109684819426",
        "aphelion_distance": "2.0477440673306",
        "perihelion_time": "2458831.088894937677",
        "mean_anomaly": "84.47309520876252",
        "mean_motion": ".4986278507402842",
        "equinox": "J2000",
        "orbit_class": {
            "orbit_class_type": "AMO",
            "orbit_class_description": "Near-Earth asteroid orbits similar to that of 1221 Amor",
            "orbit_class_range": "1.017 AU < q (perihelion) < 1.3 AU"
        }
    },
    "is_sentry_object": false
}